<?xml version="1.0" encoding="UTF-8"?>
<ndm xmlns:xsi="http://www.w3.org/2001/XMLSchema-instance" xsi:noNamespaceSchemaLocation="https://sanaregistry.org/r/ndmxml_unqualified/ndmxml-2.0.0-master-2.0.xsd">
<omm id="CCSDS_OMM_VERS" version="2.0">
<header><CREATION_DATE/><ORIGINATOR/></header><body><segment><metadata><OBJECT_NAME>ONEWEB-0112</OBJECT_NAME><OBJECT_ID>2021-025K</OBJECT_ID><CENTER_NAME>EARTH</CENTER_NAME><REF_FRAME>TEME</REF_FRAME><TIME_SYSTEM>UTC</TIME_SYSTEM><MEAN_ELEMENT_THEORY>SGP4</MEAN_ELEMENT_THEORY></metadata><data><meanElements><EPOCH>2024-05-12T21:42:55.878624</EPOCH><MEAN_MOTION>13.13471436</MEAN_MOTION><ECCENTRICITY>.0002014</ECCENTRICITY><INCLINATION>87.8896</INCLINATION><RA_OF_ASC_NODE>112.5503</RA_OF_ASC_NODE><ARG_OF_PERICENTER>84.5047</ARG_OF_PERICENTER><MEAN_ANOMALY>275.6312</MEAN_ANOMALY></meanElements><tleParameters><EPHEMERIS_TYPE>0</EPHEMERIS_TYPE><CLASSIFICATION_TYPE>U</CLASSIFICATION_TYPE><NORAD_CAT_ID>48051</NORAD_CAT_ID><ELEMENT_SET_NO>999</ELEMENT_SET_NO><REV_AT_EPOCH>15314</REV_AT_EPOCH><BSTAR>.54975E-4</BSTAR><MEAN_MOTION_DOT>.33E-6</MEAN_MOTION_DOT><MEAN_MOTION_DDOT>0</MEAN_MOTION_DDOT></tleParameters></data></segment></body></omm>
<omm id="CCSDS_OMM_VERS" version="2.0">
<header><CREATION_DATE/><ORIGINATOR/></header><body><segment><metadata><OBJECT_NAME>ONEWEB-0156</OBJECT_NAME><OBJECT_ID>2021-025L</OBJECT_ID><CENTER_NAME>EARTH</CENTER_NAME><REF_FRAME>TEME</REF_FRAME><TIME_SYSTEM>UTC</TIME_SYSTEM><MEAN_ELEMENT_THEORY>SGP4</MEAN_ELEMENT_THEORY></metadata><data><meanElements><EPOCH>2024-05-12T21:56:37.475232</EPOCH><MEAN_MOTION>13.13473039</MEAN_MOTION><ECCENTRICITY>.0002009</ECCENTRICITY><INCLINATION>87.8897</INCLINATION><RA_OF_ASC_NODE>112.5444</RA_OF_ASC_NODE><ARG_OF_PERICENTER>85.5031</ARG_OF_PERICENTER><MEAN_ANOMALY>274.6328</MEAN_ANOMALY></meanElements><tleParameters><EPHEMERIS_TYPE>0</EPHEMERIS_TYPE><CLASSIFICATION_TYPE>U</CLASSIFICATION_TYPE><NORAD_CAT_ID>48052</NORAD_CAT_ID><ELEMENT_SET_NO>999</ELEMENT_SET_NO><REV_AT_EPOCH>15311</REV_AT_EPOCH><BSTAR>.46646E-3</BSTAR><MEAN_MOTION_DOT>.183E-5</MEAN_MOTION_DOT><MEAN_MOTION_DDOT>0</MEAN_MOTION_DDOT></tleParameters></data></segment></body></omm>
<omm id="CCSDS_OMM_VERS" version="2.0">
<header><CREATION_DATE/><ORIGINATOR/></header><body><segment><metadata><OBJECT_NAME>ONEWEB-0161</OBJECT_NAME><OBJECT_ID>2021-025M</OBJECT_ID><CENTER_NAME>EARTH</CENTER_NAME><REF_FRAME>TEME</REF_FRAME><TIME_SYSTEM>UTC</TIME_SYSTEM><MEAN_ELEMENT_THEORY>SGP4</MEAN_ELEMENT_THEORY></metadata><data><meanElements><EPOCH>2024-05-13T11:55:21.232128</EPOCH><MEAN_MOTION>13.13470706</MEAN_MOTION><ECCENTRICITY>.0002234</ECCENTRICITY><INCLINATION>87.8903</INCLINATION><RA_OF_ASC_NODE>112.4341</RA_OF_ASC_NODE><ARG_OF_PERICENTER>85.4483</ARG_OF_PERICENTER><MEAN_ANOMALY>274.6902</MEAN_ANOMALY></meanElements><tleParameters><EPHEMERIS_TYPE>0</EPHEMERIS_TYPE><CLASSIFICATION_TYPE>U</CLASSIFICATION_TYPE><NORAD_CAT_ID>48053</NORAD_CAT_ID><ELEMENT_SET_NO>999</ELEMENT_SET_NO><REV_AT_EPOCH>15313</REV_AT_EPOCH><BSTAR>-.51221E-3</BSTAR><MEAN_MOTION_DOT>-.174E-5</MEAN_MOTION_DOT><MEAN_MOTION_DDOT>0</MEAN_MOTION_DDOT></tleParameters></data></segment></body></omm>
<omm id="CCSDS_OMM_VERS" version="2.0">
<header><CREATION_DATE/><ORIGINATOR/></header><body><segment><metadata><OBJECT_NAME>ONEWEB-0158</OBJECT_NAME><OBJECT_ID>2021-025N</OBJECT_ID><CENTER_NAME>EARTH</CENTER_NAME><REF_FRAME>TEME</REF_FRAME><TIME_SYSTEM>UTC</TIME_SYSTEM><MEAN_ELEMENT_THEORY>SGP4</MEAN_ELEMENT_THEORY></metadata><data><meanElements><EPOCH>2024-05-13T11:00:29.958912</EPOCH><MEAN_MOTION>13.13477173</MEAN_MOTION><ECCENTRICITY>.0001852</ECCENTRICITY><INCLINATION>87.8900</INCLINATION><RA_OF_ASC_NODE>112.4338</RA_OF_ASC_NODE><ARG_OF_PERICENTER>87.6038</ARG_OF_PERICENTER><MEAN_ANOMALY>272.5304</MEAN_ANOMALY></meanElements><tleParameters><EPHEMERIS_TYPE>0</EPHEMERIS_TYPE><CLASSIFICATION_TYPE>U</CLASSIFICATION_TYPE><NORAD_CAT_ID>48054</NORAD_CAT_ID><ELEMENT_SET_NO>999</ELEMENT_SET_NO><REV_AT_EPOCH>15324</REV_AT_EPOCH><BSTAR>-.16566E-2</BSTAR><MEAN_MOTION_DOT>-.592E-5</MEAN_MOTION_DOT><MEAN_MOTION_DDOT>0</MEAN_MOTION_DDOT></tleParameters></data></segment></body></omm>
<omm id="CCSDS_OMM_VERS" version="2.0">
<header><CREATION_DATE/><ORIGINATOR/></header><body><segment><metadata><OBJECT_NAME>ONEWEB-0157</OBJECT_NAME><OBJECT_ID>2021-025P</OBJECT_ID><CENTER_NAME>EARTH</CENTER_NAME><REF_FRAME>TEME</REF_FRAME><TIME_SYSTEM>UTC</TIME_SYSTEM><MEAN_ELEMENT_THEORY>SGP4</MEAN_ELEMENT_THEORY></metadata><data><meanElements><EPOCH>2024-05-12T22:46:55.142976</EPOCH><MEAN_MOTION>13.13470950</MEAN_MOTION><ECCENTRICITY>.0002079</ECCENTRICITY><INCLINATION>87.8898</INCLINATION><RA_OF_ASC_NODE>112.5509</RA_OF_ASC_NODE><ARG_OF_PERICENTER>80.2974</ARG_OF_PERICENTER><MEAN_ANOMALY>279.8390</MEAN_ANOMALY></meanElements><tleParameters><EPHEMERIS_TYPE>0</EPHEMERIS_TYPE><CLASSIFICATION_TYPE>U</CLASSIFICATION_TYPE><NORAD_CAT_ID>48055</NORAD_CAT_ID><ELEMENT_SET_NO>999</ELEMENT_SET_NO><REV_AT_EPOCH>15311</REV_AT_EPOCH><BSTAR>.2054E-3</BSTAR><MEAN_MOTION_DOT>.88E-6</MEAN_MOTION_DOT><MEAN_MOTION_DDOT>0</MEAN_MOTION_DDOT></tleParameters></data></segment></body></omm>
<omm id="CCSDS_OMM_VERS" version="2.0">
<header><CREATION_DATE/><ORIGINATOR/></header><body><segment><metadata><OBJECT_NAME>ONEWEB-0162</OBJECT_NAME><OBJECT_ID>2021-025Q</OBJECT_ID><CENTER_NAME>EARTH</CENTER_NAME><REF_FRAME>TEME</REF_FRAME><TIME_SYSTEM>UTC</TIME_SYSTEM><MEAN_ELEMENT_THEORY>SGP4</MEAN_ELEMENT_THEORY></metadata><data><meanElements><EPOCH>2024-05-12T21:54:22.102848</EPOCH><MEAN_MOTION>13.13465400</MEAN_MOTION><ECCENTRICITY>.0002576</ECCENTRICITY><INCLINATION>87.8898</INCLINATION><RA_OF_ASC_NODE>112.5564</RA_OF_ASC_NODE><ARG_OF_PERICENTER>65.7922</ARG_OF_PERICENTER><MEAN_ANOMALY>294.3476</MEAN_ANOMALY></meanElements><tleParameters><EPHEMERIS_TYPE>0</EPHEMERIS_TYPE><CLASSIFICATION_TYPE>U</CLASSIFICATION_TYPE><NORAD_CAT_ID>48056</NORAD_CAT_ID><ELEMENT_SET_NO>999</ELEMENT_SET_NO><REV_AT_EPOCH>15308</REV_AT_EPOCH><BSTAR>.40101E-2</BSTAR><MEAN_MOTION_DOT>.1477E-4</MEAN_MOTION_DOT><MEAN_MOTION_DDOT>0</MEAN_MOTION_DDOT></tleParameters></data></segment></body></omm>
<omm id="CCSDS_OMM_VERS" version="2.0">
<header><CREATION_DATE/><ORIGINATOR/></header><body><segment><metadata><OBJECT_NAME>ONEWEB-0155</OBJECT_NAME><OBJECT_ID>2021-025R</OBJECT_ID><CENTER_NAME>EARTH</CENTER_NAME><REF_FRAME>TEME</REF_FRAME><TIME_SYSTEM>UTC</TIME_SYSTEM><MEAN_ELEMENT_THEORY>SGP4</MEAN_ELEMENT_THEORY></metadata><data><meanElements><EPOCH>2024-05-13T05:42:50.718528</EPOCH><MEAN_MOTION>13.13471303</MEAN_MOTION><ECCENTRICITY>.0002036</ECCENTRICITY><INCLINATION>87.8896</INCLINATION><RA_OF_ASC_NODE>112.4993</RA_OF_ASC_NODE><ARG_OF_PERICENTER>86.9629</ARG_OF_PERICENTER><MEAN_ANOMALY>273.1733</MEAN_ANOMALY></meanElements><tleParameters><EPHEMERIS_TYPE>0</EPHEMERIS_TYPE><CLASSIFICATION_TYPE>U</CLASSIFICATION_TYPE><NORAD_CAT_ID>48057</NORAD_CAT_ID><ELEMENT_SET_NO>999</ELEMENT_SET_NO><REV_AT_EPOCH>15327</REV_AT_EPOCH><BSTAR>.1012E-2</BSTAR><MEAN_MOTION_DOT>.382E-5</MEAN_MOTION_DOT><MEAN_MOTION_DDOT>0</MEAN_MOTION_DDOT></tleParameters></data></segment></body></omm>
<omm id="CCSDS_OMM_VERS" version="2.0">
<header><CREATION_DATE/><ORIGINATOR/></header><body><segment><metadata><OBJECT_NAME>ONEWEB-0149</OBJECT_NAME><OBJECT_ID>2021-025S</OBJECT_ID><CENTER_NAME>EARTH</CENTER_NAME><REF_FRAME>TEME</REF_FRAME><TIME_SYSTEM>UTC</TIME_SYSTEM><MEAN_ELEMENT_THEORY>SGP4</MEAN_ELEMENT_THEORY></metadata><data><meanElements><EPOCH>2024-05-13T11:41:38.080320</EPOCH><MEAN_MOTION>13.13467958</MEAN_MOTION><ECCENTRICITY>.0001895</ECCENTRICITY><INCLINATION>87.8898</INCLINATION><RA_OF_ASC_NODE>112.4462</RA_OF_ASC_NODE><ARG_OF_PERICENTER>79.2255</ARG_OF_PERICENTER><MEAN_ANOMALY>280.9088</MEAN_ANOMALY></meanElements><tleParameters><EPHEMERIS_TYPE>0</EPHEMERIS_TYPE><CLASSIFICATION_TYPE>U</CLASSIFICATION_TYPE><NORAD_CAT_ID>48058</NORAD_CAT_ID><ELEMENT_SET_NO>999</ELEMENT_SET_NO><REV_AT_EPOCH>15311</REV_AT_EPOCH><BSTAR>-.57366E-4</BSTAR><MEAN_MOTION_DOT>-.8E-7</MEAN_MOTION_DOT><MEAN_MOTION_DDOT>0</MEAN_MOTION_DDOT></tleParameters></data></segment></body></omm>
<omm id="CCSDS_OMM_VERS" version="2.0">
<header><CREATION_DATE/><ORIGINATOR/></header><body><segment><metadata><OBJECT_NAME>ONEWEB-0148</OBJECT_NAME><OBJECT_ID>2021-025T</OBJECT_ID><CENTER_NAME>EARTH</CENTER_NAME><REF_FRAME>TEME</REF_FRAME><TIME_SYSTEM>UTC</TIME_SYSTEM><MEAN_ELEMENT_THEORY>SGP4</MEAN_ELEMENT_THEORY></metadata><data><meanElements><EPOCH>2024-05-12T22:03:30.163104</EPOCH><MEAN_MOTION>13.13473324</MEAN_MOTION><ECCENTRICITY>.0002033</ECCENTRICITY><INCLINATION>87.8901</INCLINATION><RA_OF_ASC_NODE>112.5682</RA_OF_ASC_NODE><ARG_OF_PERICENTER>67.1419</ARG_OF_PERICENTER><MEAN_ANOMALY>292.9924</MEAN_ANOMALY></meanElements><tleParameters><EPHEMERIS_TYPE>0</EPHEMERIS_TYPE><CLASSIFICATION_TYPE>U</CLASSIFICATION_TYPE><NORAD_CAT_ID>48059</NORAD_CAT_ID><ELEMENT_SET_NO>999</ELEMENT_SET_NO><REV_AT_EPOCH>15315</REV_AT_EPOCH><BSTAR>.68264E-3</BSTAR><MEAN_MOTION_DOT>.262E-5</MEAN_MOTION_DOT><MEAN_MOTION_DDOT>0</MEAN_MOTION_DDOT></tleParameters></data></segment></body></omm>

</ndm>
